{"type":"FeatureCollection","features":[{"type":"Feature","geometry":{"type":"Point","coordinates":[103.800931,1.440602]},"properties":{"id":"mrt-admiralty","name":"Admiralty","category":"station","codes":"NS10","source":"LTA DataMall","legacyId":"mrt-2085848057"}},{"type":"Feature","geometry":{"type":"Point","coordinates":[103.88292,1.31645]},"properties":{"id":"mrt-aljunied","name":"Aljunied","category":"station","codes":"EW9","source":"LTA DataMall","legacyId":"mrt-193368814"}},{"type":"Feature","geometry":{"type":"Point","coordinates":[103.849589,1.36998]},"properties":{"id":"mrt-ang-mo-kio","name":"Ang Mo Kio","category":"station","codes":"NS16","source":"LTA DataMall","legacyId":"mrt-2085775935"}},{"type":"Feature","geometry":{"type":"Point","coordinates":[103.879847,1.34279]},"properties":{"id":"mrt-bartley","name":"Bartley","category":"station","codes":"CC12","source":"LTA DataMall","legacyId":"mrt-2085919142"}},{"type":"Feature","geometry":{"type":"Point","coordinates":[103.859036,1.281885]},"properties":{"id":"mrt-bayfront","name":"Bayfront","category":"station","codes":"CE1-DT16","source":"LTA DataMall","legacyId":"mrt-1510603160"}},{"type":"Feature","geometry":{"type":"Point","coordinates":[103.941582,1.312931]},"properties":{"id":"mrt-bayshore","name":"Bayshore","category":"station","codes":"TE29","source":"LTA DataMall","legacyId":"mrt-2086167647"}},{"type":"Feature","geometry":{"type":"Point","coordinates":[103.775776,1.341127]},"properties":{"id":"mrt-beauty-world","name":"Beauty World","category":"station","codes":"DT5","source":"LTA DataMall","legacyId":"mrt-193355776"}},{"type":"Feature","geometry":{"type":"Point","coordinates":[103.930152,1.323998]},"properties":{"id":"mrt-bedok","name":"Bedok","category":"station","codes":"EW5","source":"LTA DataMall","legacyId":"mrt-193356002"}},{"type":"Feature","geometry":{"type":"Point","coordinates":[103.917797,1.334782]},"properties":{"id":"mrt-bedok-north","name":"Bedok North","category":"station","codes":"DT29","source":"LTA DataMall","legacyId":"mrt-2086167998"}},{"type":"Feature","geometry":{"type":"Point","coordinates":[103.9321,1.336585]},"properties":{"id":"mrt-bedok-reservoir","name":"Bedok Reservoir","category":"station","codes":"DT30","source":"LTA DataMall","legacyId":"mrt-2085845654"}},{"type":"Feature","geometry":{"type":"Point","coordinates":[103.850039,1.298557]},"properties":{"id":"mrt-bencoolen","name":"Bencoolen","category":"station","codes":"DT21","source":"LTA DataMall","legacyId":"mrt-2085880502"}},{"type":"Feature","geometry":{"type":"Point","coordinates":[103.862961,1.313698]},"properties":{"id":"mrt-bendemeer","name":"Bendemeer","category":"station","codes":"DT23","source":"LTA DataMall","legacyId":"mrt-2085948148"}},{"type":"Feature","geometry":{"type":"Point","coordinates":[103.848159,1.350717]},"properties":{"id":"mrt-bishan","name":"Bishan","category":"station","codes":"NS17-CC15","source":"LTA DataMall","legacyId":"mrt-2310021271"}},{"type":"Feature","geometry":{"type":"Point","coordinates":[103.861415,1.319151]},"properties":{"id":"mrt-boon-keng","name":"Boon Keng","category":"station","codes":"NE9","source":"LTA DataMall","legacyId":"mrt-193369143"}},{"type":"Feature","geometry":{"type":"Point","coordinates":[103.705968,1.338574]},"properties":{"id":"mrt-boon-lay","name":"Boon Lay","category":"station","codes":"EW27","source":"LTA DataMall","legacyId":"mrt-2085804754"}},{"type":"Feature","geometry":{"type":"Point","coordinates":[103.815087,1.322052]},"properties":{"id":"mrt-botanic-gardens","name":"Botanic Gardens","category":"station","codes":"CC19-DT9","source":"LTA DataMall","legacyId":"mrt-3725137065"}},{"type":"Feature","geometry":{"type":"Point","coordinates":[103.846797,1.340423]},"properties":{"id":"mrt-braddell","name":"Braddell","category":"station","codes":"NS18","source":"LTA DataMall","legacyId":"mrt-2086135537"}},{"type":"Feature","geometry":{"type":"Point","coordinates":[103.850738,1.296781]},"properties":{"id":"mrt-bras-basah","name":"Bras Basah","category":"station","codes":"CC2","source":"LTA DataMall","legacyId":"mrt-193359607"}},{"type":"Feature","geometry":{"type":"Point","coordinates":[103.832792,1.363195]},"properties":{"id":"mrt-bright-hill","name":"Bright Hill","category":"station","codes":"TE7","source":"LTA DataMall","legacyId":"mrt-193354275"}},{"type":"Feature","geometry":{"type":"Point","coordinates":[103.89311,1.382737]},"properties":{"id":"mrt-buangkok","name":"Buangkok","category":"station","codes":"NE15","source":"LTA DataMall","legacyId":"mrt-2085735498"}},{"type":"Feature","geometry":{"type":"Point","coordinates":[103.855451,1.30009]},"properties":{"id":"mrt-bugis","name":"Bugis","category":"station","codes":"EW12-DT14","source":"LTA DataMall","legacyId":"mrt-1182799692"}},{"type":"Feature","geometry":{"type":"Point","coordinates":[103.749539,1.348976]},"properties":{"id":"mrt-bukit-batok","name":"Bukit Batok","category":"station","codes":"NS2","source":"LTA DataMall","legacyId":"mrt-193359082"}},{"type":"Feature","geometry":{"type":"Point","coordinates":[103.751918,1.358677]},"properties":{"id":"mrt-bukit-gombak","name":"Bukit Gombak","category":"station","codes":"NS3","source":"LTA DataMall","legacyId":"mrt-193358059"}},{"type":"Feature","geometry":{"type":"Point","coordinates":[103.761568,1.379083]},"properties":{"id":"mrt-bukit-panjang","name":"Bukit Panjang","category":"station","codes":"DT1","source":"LTA DataMall"}},{"type":"Feature","geometry":{"type":"Point","coordinates":[103.790724,1.306669]},"properties":{"id":"mrt-buona-vista","name":"Buona Vista","category":"station","codes":"EW21-CC22","source":"LTA DataMall","legacyId":"mrt-3887000249"}},{"type":"Feature","geometry":{"type":"Point","coordinates":[103.839607,1.337583]},"properties":{"id":"mrt-caldecott","name":"Caldecott","category":"station","codes":"CC17-TE9","source":"LTA DataMall","legacyId":"mrt-3574415846"}},{"type":"Feature","geometry":{"type":"Point","coordinates":[103.829685,1.443086]},"properties":{"id":"mrt-canberra","name":"Canberra","category":"station","codes":"NS12","source":"LTA DataMall","legacyId":"mrt-2085919675"}},{"type":"Feature","geometry":{"type":"Point","coordinates":[103.764679,1.369308]},"properties":{"id":"mrt-cashew","name":"Cashew","category":"station","codes":"DT2","source":"LTA DataMall","legacyId":"mrt-193359047"}},{"type":"Feature","geometry":{"type":"Point","coordinates":[103.988621,1.357254]},"properties":{"id":"mrt-changi-airport","name":"Changi Airport","category":"station","codes":"CG2","source":"LTA DataMall","legacyId":"mrt-193359475"}},{"type":"Feature","geometry":{"type":"Point","coordinates":[103.843685,1.284568]},"properties":{"id":"mrt-chinatown","name":"Chinatown","category":"station","codes":"NE4-DT19","source":"LTA DataMall","legacyId":"mrt-3582775343"}},{"type":"Feature","geometry":{"type":"Point","coordinates":[103.732753,1.342178]},"properties":{"id":"mrt-chinese-garden","name":"Chinese Garden","category":"station","codes":"EW25","source":"LTA DataMall","legacyId":"mrt-2085736976"}},{"type":"Feature","geometry":{"type":"Point","coordinates":[103.744339,1.385056]},"properties":{"id":"mrt-choa-chu-kang","name":"Choa Chu Kang","category":"station","codes":"NS4","source":"LTA DataMall"}},{"type":"Feature","geometry":{"type":"Point","coordinates":[103.852739,1.292838]},"properties":{"id":"mrt-city-hall","name":"City Hall","category":"station","codes":"NS25-EW13","source":"LTA DataMall","legacyId":"mrt-3831598082"}},{"type":"Feature","geometry":{"type":"Point","coordinates":[103.846419,1.288181]},"properties":{"id":"mrt-clarke-quay","name":"Clarke Quay","category":"station","codes":"NE5","source":"LTA DataMall","legacyId":"mrt-193356347"}},{"type":"Feature","geometry":{"type":"Point","coordinates":[103.765258,1.31502]},"properties":{"id":"mrt-clementi","name":"Clementi","category":"station","codes":"EW23","source":"LTA DataMall","legacyId":"mrt-2085948246"}},{"type":"Feature","geometry":{"type":"Point","coordinates":[103.798411,1.302341]},"properties":{"id":"mrt-commonwealth","name":"Commonwealth","category":"station","codes":"EW20","source":"LTA DataMall","legacyId":"mrt-2085846773"}},{"type":"Feature","geometry":{"type":"Point","coordinates":[103.88886,1.308389]},"properties":{"id":"mrt-dakota","name":"Dakota","category":"station","codes":"CC8","source":"LTA DataMall","legacyId":"mrt-193370493"}},{"type":"Feature","geometry":{"type":"Point","coordinates":[103.845429,1.299611]},"properties":{"id":"mrt-dhoby-ghaut","name":"Dhoby Ghaut","category":"station","codes":"NS24-NE6-CC1","source":"LTA DataMall","legacyId":"mrt-761007794"}},{"type":"Feature","geometry":{"type":"Point","coordinates":[103.778656,1.311391]},"properties":{"id":"mrt-dover","name":"Dover","category":"station","codes":"EW22","source":"LTA DataMall","legacyId":"mrt-2085914295"}},{"type":"Feature","geometry":{"type":"Point","coordinates":[103.852869,1.279443]},"properties":{"id":"mrt-downtown","name":"Downtown","category":"station","codes":"DT17","source":"LTA DataMall","legacyId":"mrt-2085807795"}},{"type":"Feature","geometry":{"type":"Point","coordinates":[103.855689,1.293219]},"properties":{"id":"mrt-esplanade","name":"Esplanade","category":"station","codes":"CC3","source":"LTA DataMall","legacyId":"mrt-193358582"}},{"type":"Feature","geometry":{"type":"Point","coordinates":[103.903284,1.319724]},"properties":{"id":"mrt-eunos","name":"Eunos","category":"station","codes":"EW7","source":"LTA DataMall","legacyId":"mrt-193353824"}},{"type":"Feature","geometry":{"type":"Point","coordinates":[103.962965,1.334839]},"properties":{"id":"mrt-expo","name":"Expo","category":"station","codes":"CG1-DT35","source":"LTA DataMall","legacyId":"mrt-1237300779"}},{"type":"Feature","geometry":{"type":"Point","coordinates":[103.854163,1.312484]},"properties":{"id":"mrt-farrer-park","name":"Farrer Park","category":"station","codes":"NE8","source":"LTA DataMall","legacyId":"mrt-193370166"}},{"type":"Feature","geometry":{"type":"Point","coordinates":[103.807409,1.317457]},"properties":{"id":"mrt-farrer-road","name":"Farrer Road","category":"station","codes":"CC20","source":"LTA DataMall","legacyId":"mrt-2085846375"}},{"type":"Feature","geometry":{"type":"Point","coordinates":[103.844303,1.292487]},"properties":{"id":"mrt-fort-canning","name":"Fort Canning","category":"station","codes":"DT20","source":"LTA DataMall","legacyId":"mrt-2085846871"}},{"type":"Feature","geometry":{"type":"Point","coordinates":[103.867998,1.279227]},"properties":{"id":"mrt-gardens-by-the-bay","name":"Gardens by the Bay","category":"station","codes":"TE22","source":"LTA DataMall","legacyId":"mrt-2085913844"}},{"type":"Feature","geometry":{"type":"Point","coordinates":[103.871906,1.32154]},"properties":{"id":"mrt-geylang-bahru","name":"Geylang Bahru","category":"station","codes":"DT24","source":"LTA DataMall","legacyId":"mrt-2085703379"}},{"type":"Feature","geometry":{"type":"Point","coordinates":[103.833581,1.294535]},"properties":{"id":"mrt-great-world","name":"Great World","category":"station","codes":"TE15","source":"LTA DataMall","legacyId":"mrt-2085735504"}},{"type":"Feature","geometry":{"type":"Point","coordinates":[103.660724,1.319694]},"properties":{"id":"mrt-gul-circle","name":"Gul Circle","category":"station","codes":"EW30","source":"LTA DataMall","legacyId":"mrt-2085845748"}},{"type":"Feature","geometry":{"type":"Point","coordinates":[103.821506,1.265423]},"properties":{"id":"mrt-harbourfront","name":"HarbourFront","category":"station","codes":"NE1-CC29","source":"LTA DataMall","legacyId":"mrt-4210298777"}},{"type":"Feature","geometry":{"type":"Point","coordinates":[103.833503,1.288564]},"properties":{"id":"mrt-havelock","name":"Havelock","category":"station","codes":"TE16","source":"LTA DataMall","legacyId":"mrt-2085775731"}},{"type":"Feature","geometry":{"type":"Point","coordinates":[103.781862,1.282419]},"properties":{"id":"mrt-haw-par-villa","name":"Haw Par Villa","category":"station","codes":"CC25","source":"LTA DataMall","legacyId":"mrt-2085736322"}},{"type":"Feature","geometry":{"type":"Point","coordinates":[103.767387,1.36234]},"properties":{"id":"mrt-hillview","name":"Hillview","category":"station","codes":"DT3","source":"LTA DataMall","legacyId":"mrt-193357830"}},{"type":"Feature","geometry":{"type":"Point","coordinates":[103.796071,1.311695]},"properties":{"id":"mrt-holland-village","name":"Holland Village","category":"station","codes":"CC21","source":"LTA DataMall","legacyId":"mrt-2085880070"}},{"type":"Feature","geometry":{"type":"Point","coordinates":[103.892388,1.371171]},"properties":{"id":"mrt-hougang","name":"Hougang","category":"station","codes":"NE14","source":"LTA DataMall","legacyId":"mrt-2085703723"}},{"type":"Feature","geometry":{"type":"Point","coordinates":[103.769179,1.354427]},"properties":{"id":"mrt-hume","name":"Hume","category":"station","codes":"DT4","source":"LTA DataMall","legacyId":"mrt-193356993"}},{"type":"Feature","geometry":{"type":"Point","coordinates":[103.855373,1.305364]},"properties":{"id":"mrt-jalan-besar","name":"Jalan Besar","category":"station","codes":"DT22","source":"LTA DataMall","legacyId":"mrt-2085914261"}},{"type":"Feature","geometry":{"type":"Point","coordinates":[103.678289,1.327722]},"properties":{"id":"mrt-joo-koon","name":"Joo Koon","category":"station","codes":"EW29","source":"LTA DataMall","legacyId":"mrt-2086167964"}},{"type":"Feature","geometry":{"type":"Point","coordinates":[103.742328,1.333115]},"properties":{"id":"mrt-jurong-east","name":"Jurong East","category":"station","codes":"NS1-EW24","source":"LTA DataMall","legacyId":"mrt-3361469936"}},{"type":"Feature","geometry":{"type":"Point","coordinates":[103.908583,1.335003]},"properties":{"id":"mrt-kaki-bukit","name":"Kaki Bukit","category":"station","codes":"DT28","source":"LTA DataMall","legacyId":"mrt-2086134367"}},{"type":"Feature","geometry":{"type":"Point","coordinates":[103.871308,1.311415]},"properties":{"id":"mrt-kallang","name":"Kallang","category":"station","codes":"EW10","source":"LTA DataMall","legacyId":"mrt-2085847926"}},{"type":"Feature","geometry":{"type":"Point","coordinates":[103.886323,1.297917]},"properties":{"id":"mrt-katong-park","name":"Katong Park","category":"station","codes":"TE24","source":"LTA DataMall","legacyId":"mrt-2085702706"}},{"type":"Feature","geometry":{"type":"Point","coordinates":[103.912972,1.321042]},"properties":{"id":"mrt-kembangan","name":"Kembangan","category":"station","codes":"EW6","source":"LTA DataMall","legacyId":"mrt-193354849"}},{"type":"Feature","geometry":{"type":"Point","coordinates":[103.784391,1.293389]},"properties":{"id":"mrt-kent-ridge","name":"Kent Ridge","category":"station","codes":"CC24","source":"LTA DataMall","legacyId":"mrt-2085702627"}},{"type":"Feature","geometry":{"type":"Point","coordinates":[103.833036,1.417589]},"properties":{"id":"mrt-khatib","name":"Khatib","category":"station","codes":"NS14","source":"LTA DataMall","legacyId":"mrt-2085704317"}},{"type":"Feature","geometry":{"type":"Point","coordinates":[103.78398,1.335627]},"properties":{"id":"mrt-king-albert-park","name":"King Albert Park","category":"station","codes":"DT6","source":"LTA DataMall","legacyId":"mrt-193354947"}},{"type":"Feature","geometry":{"type":"Point","coordinates":[103.885186,1.360189]},"properties":{"id":"mrt-kovan","name":"Kovan","category":"station","codes":"NE13","source":"LTA DataMall","legacyId":"mrt-2085950732"}},{"type":"Feature","geometry":{"type":"Point","coordinates":[103.762196,1.425288]},"properties":{"id":"mrt-kranji","name":"Kranji","category":"station","codes":"NS7","source":"LTA DataMall","legacyId":"mrt-193353711"}},{"type":"Feature","geometry":{"type":"Point","coordinates":[103.803014,1.272334]},"properties":{"id":"mrt-labrador-park","name":"Labrador Park","category":"station","codes":"CC27","source":"LTA DataMall","legacyId":"mrt-2085804096"}},{"type":"Feature","geometry":{"type":"Point","coordinates":[103.72095,1.344246]},"properties":{"id":"mrt-lakeside","name":"Lakeside","category":"station","codes":"EW26","source":"LTA DataMall","legacyId":"mrt-2085770803"}},{"type":"Feature","geometry":{"type":"Point","coordinates":[103.862887,1.307281]},"properties":{"id":"mrt-lavender","name":"Lavender","category":"station","codes":"EW11","source":"LTA DataMall","legacyId":"mrt-2085879447"}},{"type":"Feature","geometry":{"type":"Point","coordinates":[103.836721,1.384674]},"properties":{"id":"mrt-lentor","name":"Lentor","category":"station","codes":"TE5","source":"LTA DataMall","legacyId":"mrt-193356321"}},{"type":"Feature","geometry":{"type":"Point","coordinates":[103.848877,1.306922]},"properties":{"id":"mrt-little-india","name":"Little India","category":"station","codes":"NE7-DT12","source":"LTA DataMall","legacyId":"mrt-2321494343"}},{"type":"Feature","geometry":{"type":"Point","coordinates":[103.864252,1.351582]},"properties":{"id":"mrt-lorong-chuan","name":"Lorong Chuan","category":"station","codes":"CC14","source":"LTA DataMall","legacyId":"mrt-2085703776"}},{"type":"Feature","geometry":{"type":"Point","coordinates":[103.889499,1.326197]},"properties":{"id":"mrt-macpherson","name":"MacPherson","category":"station","codes":"CC10-DT26","source":"LTA DataMall","legacyId":"mrt-3245102333"}},{"type":"Feature","geometry":{"type":"Point","coordinates":[103.854784,1.275534]},"properties":{"id":"mrt-marina-bay","name":"Marina Bay","category":"station","codes":"NS27-CE2-TE20","source":"LTA DataMall","legacyId":"mrt-767296206"}},{"type":"Feature","geometry":{"type":"Point","coordinates":[103.862864,1.271395]},"properties":{"id":"mrt-marina-south-pier","name":"Marina South Pier","category":"station","codes":"NS28","source":"LTA DataMall","legacyId":"mrt-2086134386"}},{"type":"Feature","geometry":{"type":"Point","coordinates":[103.906679,1.30369]},"properties":{"id":"mrt-marine-parade","name":"Marine Parade","category":"station","codes":"TE26","source":"LTA DataMall","legacyId":"mrt-2085770352"}},{"type":"Feature","geometry":{"type":"Point","coordinates":[103.91498,1.306717]},"properties":{"id":"mrt-marine-terrace","name":"Marine Terrace","category":"station","codes":"TE27","source":"LTA DataMall","legacyId":"mrt-2085804049"}},{"type":"Feature","geometry":{"type":"Point","coordinates":[103.774017,1.432613]},"properties":{"id":"mrt-marsiling","name":"Marsiling","category":"station","codes":"NS8","source":"LTA DataMall","legacyId":"mrt-193369952"}},{"type":"Feature","geometry":{"type":"Point","coordinates":[103.839269,1.348663]},"properties":{"id":"mrt-marymount","name":"Marymount","category":"station","codes":"CC16","source":"LTA DataMall","legacyId":"mrt-2085775394"}},{"type":"Feature","geometry":{"type":"Point","coordinates":[103.883112,1.326937]},"properties":{"id":"mrt-mattar","name":"Mattar","category":"station","codes":"DT25","source":"LTA DataMall","legacyId":"mrt-2085737010"}},{"type":"Feature","geometry":{"type":"Point","coordinates":[103.84404,1.280597]},"properties":{"id":"mrt-maxwell","name":"Maxwell","category":"station","codes":"TE18","source":"LTA DataMall","legacyId":"mrt-2086134717"}},{"type":"Feature","geometry":{"type":"Point","coordinates":[103.836859,1.372175]},"properties":{"id":"mrt-mayflower","name":"Mayflower","category":"station","codes":"TE6","source":"LTA DataMall","legacyId":"mrt-193355298"}},{"type":"Feature","geometry":{"type":"Point","coordinates":[103.882731,1.306239]},"properties":{"id":"mrt-mountbatten","name":"Mountbatten","category":"station","codes":"CC7","source":"LTA DataMall","legacyId":"mrt-193354226"}},{"type":"Feature","geometry":{"type":"Point","coordinates":[103.818981,1.306779]},"properties":{"id":"mrt-napier","name":"Napier","category":"station","codes":"TE12","source":"LTA DataMall","legacyId":"mrt-2085919223"}},{"type":"Feature","geometry":{"type":"Point","coordinates":[103.838156,1.313503]},"properties":{"id":"mrt-newton","name":"Newton","category":"station","codes":"NS21-DT11","source":"LTA DataMall","legacyId":"mrt-3831623142"}},{"type":"Feature","geometry":{"type":"Point","coordinates":[103.863663,1.299768]},"properties":{"id":"mrt-nicoll-highway","name":"Nicoll Highway","category":"station","codes":"CC5","source":"LTA DataMall","legacyId":"mrt-193356400"}},{"type":"Feature","geometry":{"type":"Point","coordinates":[103.843843,1.320459]},"properties":{"id":"mrt-novena","name":"Novena","category":"station","codes":"NS20","source":"LTA DataMall","legacyId":"mrt-2085846906"}},{"type":"Feature","geometry":{"type":"Point","coordinates":[103.787428,1.299711]},"properties":{"id":"mrt-one-north","name":"one-north","category":"station","codes":"CC23","source":"LTA DataMall","legacyId":"mrt-2085947844"}},{"type":"Feature","geometry":{"type":"Point","coordinates":[103.831634,1.303268]},"properties":{"id":"mrt-orchard","name":"Orchard","category":"station","codes":"NS22-TE14","source":"LTA DataMall","legacyId":"mrt-3907110145"}},{"type":"Feature","geometry":{"type":"Point","coordinates":[103.823569,1.303049]},"properties":{"id":"mrt-orchard-boulevard","name":"Orchard Boulevard","category":"station","codes":"TE13","source":"LTA DataMall","legacyId":"mrt-2085950742"}},{"type":"Feature","geometry":{"type":"Point","coordinates":[103.839954,1.280446]},"properties":{"id":"mrt-outram-park","name":"Outram Park","category":"station","codes":"EW16-NE3-TE17","source":"LTA DataMall","legacyId":"mrt-3886898175"}},{"type":"Feature","geometry":{"type":"Point","coordinates":[103.791386,1.276237]},"properties":{"id":"mrt-pasir-panjang","name":"Pasir Panjang","category":"station","codes":"CC26","source":"LTA DataMall","legacyId":"mrt-2085770145"}},{"type":"Feature","geometry":{"type":"Point","coordinates":[103.949265,1.37298]},"properties":{"id":"mrt-pasir-ris","name":"Pasir Ris","category":"station","codes":"EW1","source":"LTA DataMall","legacyId":"mrt-193360102"}},{"type":"Feature","geometry":{"type":"Point","coordinates":[103.892271,1.317357]},"properties":{"id":"mrt-paya-lebar","name":"Paya Lebar","category":"station","codes":"EW8-CC9","source":"LTA DataMall","legacyId":"mrt-4017401659"}},{"type":"Feature","geometry":{"type":"Point","coordinates":[103.697417,1.337588]},"properties":{"id":"mrt-pioneer","name":"Pioneer","category":"station","codes":"EW28","source":"LTA DataMall","legacyId":"mrt-2086134269"}},{"type":"Feature","geometry":{"type":"Point","coordinates":[103.869149,1.33151]},"properties":{"id":"mrt-potong-pasir","name":"Potong Pasir","category":"station","codes":"NE10","source":"LTA DataMall","legacyId":"mrt-2085847215"}},{"type":"Feature","geometry":{"type":"Point","coordinates":[103.861099,1.29314]},"properties":{"id":"mrt-promenade","name":"Promenade","category":"station","codes":"CC4-DT15","source":"LTA DataMall","legacyId":"mrt-3567017704"}},{"type":"Feature","geometry":{"type":"Point","coordinates":[103.902349,1.405088]},"properties":{"id":"mrt-punggol","name":"Punggol","category":"station","codes":"NE17","source":"LTA DataMall"}},{"type":"Feature","geometry":{"type":"Point","coordinates":[103.910303,1.414982]},"properties":{"id":"mrt-punggol-coast","name":"Punggol Coast","category":"station","codes":"NE18","source":"LTA DataMall","legacyId":"mrt-2086134695"}},{"type":"Feature","geometry":{"type":"Point","coordinates":[103.806044,1.294613]},"properties":{"id":"mrt-queenstown","name":"Queenstown","category":"station","codes":"EW19","source":"LTA DataMall","legacyId":"mrt-2086166943"}},{"type":"Feature","geometry":{"type":"Point","coordinates":[103.851419,1.283897]},"properties":{"id":"mrt-raffles-place","name":"Raffles Place","category":"station","codes":"NS26-EW14","source":"LTA DataMall","legacyId":"mrt-1358911014"}},{"type":"Feature","geometry":{"type":"Point","coordinates":[103.816848,1.289598]},"properties":{"id":"mrt-redhill","name":"Redhill","category":"station","codes":"EW18","source":"LTA DataMall","legacyId":"mrt-2086135422"}},{"type":"Feature","geometry":{"type":"Point","coordinates":[103.852451,1.303928]},"properties":{"id":"mrt-rochor","name":"Rochor","category":"station","codes":"DT13","source":"LTA DataMall","legacyId":"mrt-2085951287"}},{"type":"Feature","geometry":{"type":"Point","coordinates":[103.820193,1.449103]},"properties":{"id":"mrt-sembawang","name":"Sembawang","category":"station","codes":"NS11","source":"LTA DataMall","legacyId":"mrt-2085879576"}},{"type":"Feature","geometry":{"type":"Point","coordinates":[103.895524,1.391841]},"properties":{"id":"mrt-sengkang","name":"Sengkang","category":"station","codes":"NE16","source":"LTA DataMall"}},{"type":"Feature","geometry":{"type":"Point","coordinates":[103.873858,1.349857]},"properties":{"id":"mrt-serangoon","name":"Serangoon","category":"station","codes":"NE12-CC13","source":"LTA DataMall","legacyId":"mrt-1141402978"}},{"type":"Feature","geometry":{"type":"Point","coordinates":[103.850558,1.277594]},"properties":{"id":"mrt-shenton-way","name":"Shenton Way","category":"station","codes":"TE19","source":"LTA DataMall","legacyId":"mrt-2086166492"}},{"type":"Feature","geometry":{"type":"Point","coordinates":[103.929046,1.309591]},"properties":{"id":"mrt-siglap","name":"Siglap","category":"station","codes":"TE28","source":"LTA DataMall","legacyId":"mrt-2086133694"}},{"type":"Feature","geometry":{"type":"Point","coordinates":[103.953352,1.343228]},"properties":{"id":"mrt-simei","name":"Simei","category":"station","codes":"EW3","source":"LTA DataMall","legacyId":"mrt-193357924"}},{"type":"Feature","geometry":{"type":"Point","coordinates":[103.797193,1.330796]},"properties":{"id":"mrt-sixth-avenue","name":"Sixth Avenue","category":"station","codes":"DT7","source":"LTA DataMall","legacyId":"mrt-193353730"}},{"type":"Feature","geometry":{"type":"Point","coordinates":[103.838762,1.300357]},"properties":{"id":"mrt-somerset","name":"Somerset","category":"station","codes":"NS23","source":"LTA DataMall","legacyId":"mrt-2085948377"}},{"type":"Feature","geometry":{"type":"Point","coordinates":[103.818082,1.398125]},"properties":{"id":"mrt-springleaf","name":"Springleaf","category":"station","codes":"TE4","source":"LTA DataMall","legacyId":"mrt-193357344"}},{"type":"Feature","geometry":{"type":"Point","coordinates":[103.875348,1.302848]},"properties":{"id":"mrt-stadium","name":"Stadium","category":"station","codes":"CC6","source":"LTA DataMall","legacyId":"mrt-193355251"}},{"type":"Feature","geometry":{"type":"Point","coordinates":[103.825414,1.319468]},"properties":{"id":"mrt-stevens","name":"Stevens","category":"station","codes":"DT10-TE11","source":"LTA DataMall","legacyId":"mrt-3982372968"}},{"type":"Feature","geometry":{"type":"Point","coordinates":[103.888338,1.335339]},"properties":{"id":"mrt-tai-seng","name":"Tai Seng","category":"station","codes":"CC11","source":"LTA DataMall","legacyId":"mrt-2085879045"}},{"type":"Feature","geometry":{"type":"Point","coordinates":[103.942935,1.35504]},"properties":{"id":"mrt-tampines","name":"Tampines","category":"station","codes":"EW2-DT32","source":"LTA DataMall","legacyId":"mrt-3319164313"}},{"type":"Feature","geometry":{"type":"Point","coordinates":[103.954448,1.356259]},"properties":{"id":"mrt-tampines-east","name":"Tampines East","category":"station","codes":"DT33","source":"LTA DataMall","legacyId":"mrt-2085953333"}},{"type":"Feature","geometry":{"type":"Point","coordinates":[103.938429,1.345684]},"properties":{"id":"mrt-tampines-west","name":"Tampines West","category":"station","codes":"DT31","source":"LTA DataMall","legacyId":"mrt-2085885943"}},{"type":"Feature","geometry":{"type":"Point","coordinates":[103.80735,1.325896]},"properties":{"id":"mrt-tan-kah-kee","name":"Tan Kah Kee","category":"station","codes":"DT8","source":"LTA DataMall","legacyId":"mrt-193369805"}},{"type":"Feature","geometry":{"type":"Point","coordinates":[103.946516,1.327242]},"properties":{"id":"mrt-tanah-merah","name":"Tanah Merah","category":"station","codes":"EW4","source":"LTA DataMall","legacyId":"mrt-2595553642"}},{"type":"Feature","geometry":{"type":"Point","coordinates":[103.89772,1.299598]},"properties":{"id":"mrt-tanjong-katong","name":"Tanjong Katong","category":"station","codes":"TE25","source":"LTA DataMall","legacyId":"mrt-2085736659"}},{"type":"Feature","geometry":{"type":"Point","coordinates":[103.845249,1.276417]},"properties":{"id":"mrt-tanjong-pagar","name":"Tanjong Pagar","category":"station","codes":"EW15","source":"LTA DataMall","legacyId":"mrt-2085735955"}},{"type":"Feature","geometry":{"type":"Point","coordinates":[103.873595,1.297314]},"properties":{"id":"mrt-tanjong-rhu","name":"Tanjong Rhu","category":"station","codes":"TE23","source":"LTA DataMall","legacyId":"mrt-2085947541"}},{"type":"Feature","geometry":{"type":"Point","coordinates":[103.848361,1.282294]},"properties":{"id":"mrt-telok-ayer","name":"Telok Ayer","category":"station","codes":"DT18","source":"LTA DataMall","legacyId":"mrt-2086135196"}},{"type":"Feature","geometry":{"type":"Point","coordinates":[103.809752,1.270591]},"properties":{"id":"mrt-telok-blangah","name":"Telok Blangah","category":"station","codes":"CC28","source":"LTA DataMall","legacyId":"mrt-2086133871"}},{"type":"Feature","geometry":{"type":"Point","coordinates":[103.827396,1.286126]},"properties":{"id":"mrt-tiong-bahru","name":"Tiong Bahru","category":"station","codes":"EW17","source":"LTA DataMall","legacyId":"mrt-2085807825"}},{"type":"Feature","geometry":{"type":"Point","coordinates":[103.847479,1.33262]},"properties":{"id":"mrt-toa-payoh","name":"Toa Payoh","category":"station","codes":"NS19","source":"LTA DataMall","legacyId":"mrt-2086167056"}},{"type":"Feature","geometry":{"type":"Point","coordinates":[103.64904,1.321067]},"properties":{"id":"mrt-tuas-crescent","name":"Tuas Crescent","category":"station","codes":"EW31","source":"LTA DataMall","legacyId":"mrt-2085885717"}},{"type":"Feature","geometry":{"type":"Point","coordinates":[103.636742,1.34032]},"properties":{"id":"mrt-tuas-link","name":"Tuas Link","category":"station","codes":"EW33","source":"LTA DataMall","legacyId":"mrt-2085953495"}},{"type":"Feature","geometry":{"type":"Point","coordinates":[103.639585,1.330028]},"properties":{"id":"mrt-tuas-west-road","name":"Tuas West Road","category":"station","codes":"EW32","source":"LTA DataMall","legacyId":"mrt-2085913270"}},{"type":"Feature","geometry":{"type":"Point","coordinates":[103.899192,1.329949]},"properties":{"id":"mrt-ubi","name":"Ubi","category":"station","codes":"DT27","source":"LTA DataMall","legacyId":"mrt-2085804656"}},{"type":"Feature","geometry":{"type":"Point","coordinates":[103.961318,1.341852]},"properties":{"id":"mrt-upper-changi","name":"Upper Changi","category":"station","codes":"DT34","source":"LTA DataMall","legacyId":"mrt-2085702162"}},{"type":"Feature","geometry":{"type":"Point","coordinates":[103.832417,1.354642]},"properties":{"id":"mrt-upper-thomson","name":"Upper Thomson","category":"station","codes":"TE8","source":"LTA DataMall","legacyId":"mrt-193370156"}},{"type":"Feature","geometry":{"type":"Point","coordinates":[103.78789,1.435869]},"properties":{"id":"mrt-woodlands","name":"Woodlands","category":"station","codes":"NS9-TE2","source":"LTA DataMall","legacyId":"mrt-665701999"}},{"type":"Feature","geometry":{"type":"Point","coordinates":[103.785659,1.448372]},"properties":{"id":"mrt-woodlands-north","name":"Woodlands North","category":"station","codes":"TE1","source":"LTA DataMall","legacyId":"mrt-193360421"}},{"type":"Feature","geometry":{"type":"Point","coordinates":[103.794433,1.426685]},"properties":{"id":"mrt-woodlands-south","name":"Woodlands South","category":"station","codes":"TE3","source":"LTA DataMall","legacyId":"mrt-193358375"}},{"type":"Feature","geometry":{"type":"Point","coordinates":[103.870816,1.339158]},"properties":{"id":"mrt-woodleigh","name":"Woodleigh","category":"station","codes":"NE11","source":"LTA DataMall","legacyId":"mrt-2085878990"}},{"type":"Feature","geometry":{"type":"Point","coordinates":[103.747382,1.397592]},"properties":{"id":"mrt-yew-tee","name":"Yew Tee","category":"station","codes":"NS5","source":"LTA DataMall","legacyId":"mrt-193355885"}},{"type":"Feature","geometry":{"type":"Point","coordinates":[103.844802,1.381786]},"properties":{"id":"mrt-yio-chu-kang","name":"Yio Chu Kang","category":"station","codes":"NS15","source":"LTA DataMall","legacyId":"mrt-2085735836"}},{"type":"Feature","geometry":{"type":"Point","coordinates":[103.834961,1.429516]},"properties":{"id":"mrt-yishun","name":"Yishun","category":"station","codes":"NS13","source":"LTA DataMall","legacyId":"mrt-2085951450"}}]}
